[{"OBJECT_NAME":"STARLINK-30140","OBJECT_ID":"2023-107B","EPOCH":"2026-03-09T22:00:01.999584","MEAN_MOTION":15.15183718,"ECCENTRICITY":0.00016562,"INCLINATION":42.9994,"RA_OF_ASC_NODE":337.4058,"ARG_OF_PERICENTER":269.4971,"MEAN_ANOMALY":11.6356,"EPHEMERIS_TYPE":0,"CLASSIFICATION_TYPE":"U","NORAD_CAT_ID":57458,"ELEMENT_SET_NO":999,"REV_AT_EPOCH":573,"BSTAR":0.002785435,"MEAN_MOTION_DOT":0.00053397,"MEAN_MOTION_DDOT":0},{"OBJECT_NAME":"ALISIO-1","OBJECT_ID":"2023-185M","EPOCH":"2026-03-09T23:05:14.691840","MEAN_MOTION":15.16299812,"ECCENTRICITY":0.00049564,"INCLINATION":97.5439,"RA_OF_ASC_NODE":142.8755,"ARG_OF_PERICENTER":306.4633,"MEAN_ANOMALY":53.6142,"EPHEMERIS_TYPE":0,"CLASSIFICATION_TYPE":"U","NORAD_CAT_ID":58562,"ELEMENT_SET_NO":999,"REV_AT_EPOCH":12351,"BSTAR":0.00026900054,"MEAN_MOTION_DOT":5.144e-5,"MEAN_MOTION_DDOT":0}]
